UNKNOWN                 
1 87304U          25342.23768940  .00003655  00000+0  54133-3 0  9994
2 87304  74.0190 329.7646 0019656 298.1021  61.8165 14.75400941645818
UNKNOWN                 
1 87320U          25343.59733030  .00001800  00000+0  11579-2 0  9990
2 87320  66.5939  91.7705 0415108  56.8597 307.1586 13.70043236593318
UNKNOWN                 
1 87334U          25343.28918078  .00029224  00000+0  17252-1 0  9991
2 87334  89.9937 271.7164 0066593 267.8626  91.4930 14.06520024386160
UNKNOWN                 
1 87335U          25343.30236836  .00027287  00000+0  15866-1 0  9996
2 87335  89.9773 268.0294 0076375 240.5166 118.8384 14.07013815386497
UNKNOWN                 
1 87405U          25343.56041644  .00003419  00000+0  24378-2 0  9993
2 87405  82.7504  62.6292 0056689 339.7538  20.1381 13.96338638610711
UNKNOWN                 
1 87426U          25343.43225549  .00009205  00000+0  35263-2 0  9994
2 87426  65.7847 343.5200 0070460 292.6909 217.0527 14.29581439622119
UNKNOWN                 
1 87448U          25342.05025510  .00001904  00000+0  15468-2 0  9994
2 87448 100.4512 187.9937 0063121 217.2185 142.4586 13.90581475608589
UNKNOWN                 
1 87456U          25340.63787409  .00006883  00000+0  10360-2 0  9994
2 87456  65.7818 107.1903 0510617   8.0641 352.8261 14.13392421610630
UNKNOWN                 
1 87517U          25342.02668627  .00003636  00000+0  10212-2 0  9996
2 87517  65.8238 244.3077 0674819 308.6919  63.5860 13.61226401592279
UNKNOWN                 
1 87541U          25341.55037037  .00000340  00000+0  74449-3 0  9997
2 87541  99.6998 195.7254 0059473 275.6633 112.5958 13.35589670581349
UNKNOWN                 
1 87553U          25343.35233996  .00005394  00000+0  16234-2 0  9993
2 87553  65.6706   4.0727 0700804 229.0157 124.8228 13.53461524590796
UNKNOWN                 
1 87557U          25341.55684146  .00006931  00000+0  15256-1 0  9994
2 87557 101.7248 196.3279 0070981  15.0409 345.2795 13.27694723564349
