CCSDS_OMM_VERS = 2.0
CREATION_DATE  = 
ORIGINATOR     = 

OBJECT_NAME    = UNKNOWN
OBJECT_ID      = 
CENTER_NAME    = EARTH
REF_FRAME      = TEME
TIME_SYSTEM    = UTC
MEAN_ELEMENT_THEORY = SGP/SGP4

EPOCH          = 2025-12-08T05:42:16.364160
MEAN_MOTION    = 14.75400941
ECCENTRICITY   = .0019656
INCLINATION    = 74.0190
RA_OF_ASC_NODE = 329.7646
ARG_OF_PERICENTER = 298.1021
MEAN_ANOMALY   = 61.8165

EPHEMERIS_TYPE = 0
CLASSIFICATION_TYPE = U
NORAD_CAT_ID   = 87304
ELEMENT_SET_NO = 999
REV_AT_EPOCH   = 64581
BSTAR          = .54133E-3
MEAN_MOTION_DOT = .3655E-4
MEAN_MOTION_DDOT = 0

CCSDS_OMM_VERS = 2.0
CREATION_DATE  = 
ORIGINATOR     = 

OBJECT_NAME    = UNKNOWN
OBJECT_ID      = 
CENTER_NAME    = EARTH
REF_FRAME      = TEME
TIME_SYSTEM    = UTC
MEAN_ELEMENT_THEORY = SGP/SGP4

EPOCH          = 2025-12-09T14:20:09.337920
MEAN_MOTION    = 13.70043236
ECCENTRICITY   = .0415108
INCLINATION    = 66.5939
RA_OF_ASC_NODE = 91.7705
ARG_OF_PERICENTER = 56.8597
MEAN_ANOMALY   = 307.1586

EPHEMERIS_TYPE = 0
CLASSIFICATION_TYPE = U
NORAD_CAT_ID   = 87320
ELEMENT_SET_NO = 999
REV_AT_EPOCH   = 59331
BSTAR          = .11579E-2
MEAN_MOTION_DOT = .18E-4
MEAN_MOTION_DDOT = 0

CCSDS_OMM_VERS = 2.0
CREATION_DATE  = 
ORIGINATOR     = 

OBJECT_NAME    = UNKNOWN
OBJECT_ID      = 
CENTER_NAME    = EARTH
REF_FRAME      = TEME
TIME_SYSTEM    = UTC
MEAN_ELEMENT_THEORY = SGP/SGP4

EPOCH          = 2025-12-09T06:56:25.219392
MEAN_MOTION    = 14.06520024
ECCENTRICITY   = .0066593
INCLINATION    = 89.9937
RA_OF_ASC_NODE = 271.7164
ARG_OF_PERICENTER = 267.8626
MEAN_ANOMALY   = 91.4930

EPHEMERIS_TYPE = 0
CLASSIFICATION_TYPE = U
NORAD_CAT_ID   = 87334
ELEMENT_SET_NO = 999
REV_AT_EPOCH   = 38616
BSTAR          = .17252E-1
MEAN_MOTION_DOT = .29224E-3
MEAN_MOTION_DDOT = 0

CCSDS_OMM_VERS = 2.0
CREATION_DATE  = 
ORIGINATOR     = 

OBJECT_NAME    = UNKNOWN
OBJECT_ID      = 
CENTER_NAME    = EARTH
REF_FRAME      = TEME
TIME_SYSTEM    = UTC
MEAN_ELEMENT_THEORY = SGP/SGP4

EPOCH          = 2025-12-09T07:15:24.626304
MEAN_MOTION    = 14.07013815
ECCENTRICITY   = .0076375
INCLINATION    = 89.9773
RA_OF_ASC_NODE = 268.0294
ARG_OF_PERICENTER = 240.5166
MEAN_ANOMALY   = 118.8384

EPHEMERIS_TYPE = 0
CLASSIFICATION_TYPE = U
NORAD_CAT_ID   = 87335
ELEMENT_SET_NO = 999
REV_AT_EPOCH   = 38649
BSTAR          = .15866E-1
MEAN_MOTION_DOT = .27287E-3
MEAN_MOTION_DDOT = 0

CCSDS_OMM_VERS = 2.0
CREATION_DATE  = 
ORIGINATOR     = 

OBJECT_NAME    = UNKNOWN
OBJECT_ID      = 
CENTER_NAME    = EARTH
REF_FRAME      = TEME
TIME_SYSTEM    = UTC
MEAN_ELEMENT_THEORY = SGP/SGP4

EPOCH          = 2025-12-09T13:26:59.980416
MEAN_MOTION    = 13.96338638
ECCENTRICITY   = .0056689
INCLINATION    = 82.7504
RA_OF_ASC_NODE = 62.6292
ARG_OF_PERICENTER = 339.7538
MEAN_ANOMALY   = 20.1381

EPHEMERIS_TYPE = 0
CLASSIFICATION_TYPE = U
NORAD_CAT_ID   = 87405
ELEMENT_SET_NO = 999
REV_AT_EPOCH   = 61071
BSTAR          = .24378E-2
MEAN_MOTION_DOT = .3419E-4
MEAN_MOTION_DDOT = 0

CCSDS_OMM_VERS = 2.0
CREATION_DATE  = 
ORIGINATOR     = 

OBJECT_NAME    = UNKNOWN
OBJECT_ID      = 
CENTER_NAME    = EARTH
REF_FRAME      = TEME
TIME_SYSTEM    = UTC
MEAN_ELEMENT_THEORY = SGP/SGP4

EPOCH          = 2025-12-09T10:22:26.874336
MEAN_MOTION    = 14.29581439
ECCENTRICITY   = .007046
INCLINATION    = 65.7847
RA_OF_ASC_NODE = 343.5200
ARG_OF_PERICENTER = 292.6909
MEAN_ANOMALY   = 217.0527

EPHEMERIS_TYPE = 0
CLASSIFICATION_TYPE = U
NORAD_CAT_ID   = 87426
ELEMENT_SET_NO = 999
REV_AT_EPOCH   = 62211
BSTAR          = .35263E-2
MEAN_MOTION_DOT = .9205E-4
MEAN_MOTION_DDOT = 0

CCSDS_OMM_VERS = 2.0
CREATION_DATE  = 
ORIGINATOR     = 

OBJECT_NAME    = UNKNOWN
OBJECT_ID      = 
CENTER_NAME    = EARTH
REF_FRAME      = TEME
TIME_SYSTEM    = UTC
MEAN_ELEMENT_THEORY = SGP/SGP4

EPOCH          = 2025-12-08T01:12:22.040640
MEAN_MOTION    = 13.90581475
ECCENTRICITY   = .0063121
INCLINATION    = 100.4512
RA_OF_ASC_NODE = 187.9937
ARG_OF_PERICENTER = 217.2185
MEAN_ANOMALY   = 142.4586

EPHEMERIS_TYPE = 0
CLASSIFICATION_TYPE = U
NORAD_CAT_ID   = 87448
ELEMENT_SET_NO = 999
REV_AT_EPOCH   = 60858
BSTAR          = .15468E-2
MEAN_MOTION_DOT = .1904E-4
MEAN_MOTION_DDOT = 0

CCSDS_OMM_VERS = 2.0
CREATION_DATE  = 
ORIGINATOR     = 

OBJECT_NAME    = UNKNOWN
OBJECT_ID      = 
CENTER_NAME    = EARTH
REF_FRAME      = TEME
TIME_SYSTEM    = UTC
MEAN_ELEMENT_THEORY = SGP/SGP4

EPOCH          = 2025-12-06T15:18:32.321376
MEAN_MOTION    = 14.13392421
ECCENTRICITY   = .0510617
INCLINATION    = 65.7818
RA_OF_ASC_NODE = 107.1903
ARG_OF_PERICENTER = 8.0641
MEAN_ANOMALY   = 352.8261

EPHEMERIS_TYPE = 0
CLASSIFICATION_TYPE = U
NORAD_CAT_ID   = 87456
ELEMENT_SET_NO = 999
REV_AT_EPOCH   = 61063
BSTAR          = .1036E-2
MEAN_MOTION_DOT = .6883E-4
MEAN_MOTION_DDOT = 0

CCSDS_OMM_VERS = 2.0
CREATION_DATE  = 
ORIGINATOR     = 

OBJECT_NAME    = UNKNOWN
OBJECT_ID      = 
CENTER_NAME    = EARTH
REF_FRAME      = TEME
TIME_SYSTEM    = UTC
MEAN_ELEMENT_THEORY = SGP/SGP4

EPOCH          = 2025-12-08T00:38:25.693728
MEAN_MOTION    = 13.61226401
ECCENTRICITY   = .0674819
INCLINATION    = 65.8238
RA_OF_ASC_NODE = 244.3077
ARG_OF_PERICENTER = 308.6919
MEAN_ANOMALY   = 63.5860

EPHEMERIS_TYPE = 0
CLASSIFICATION_TYPE = U
NORAD_CAT_ID   = 87517
ELEMENT_SET_NO = 999
REV_AT_EPOCH   = 59227
BSTAR          = .10212E-2
MEAN_MOTION_DOT = .3636E-4
MEAN_MOTION_DDOT = 0

CCSDS_OMM_VERS = 2.0
CREATION_DATE  = 
ORIGINATOR     = 

OBJECT_NAME    = UNKNOWN
OBJECT_ID      = 
CENTER_NAME    = EARTH
REF_FRAME      = TEME
TIME_SYSTEM    = UTC
MEAN_ELEMENT_THEORY = SGP/SGP4

EPOCH          = 2025-12-07T13:12:31.999968
MEAN_MOTION    = 13.35589670
ECCENTRICITY   = .0059473
INCLINATION    = 99.6998
RA_OF_ASC_NODE = 195.7254
ARG_OF_PERICENTER = 275.6633
MEAN_ANOMALY   = 112.5958

EPHEMERIS_TYPE = 0
CLASSIFICATION_TYPE = U
NORAD_CAT_ID   = 87541
ELEMENT_SET_NO = 999
REV_AT_EPOCH   = 58134
BSTAR          = .74449E-3
MEAN_MOTION_DOT = .34E-5
MEAN_MOTION_DDOT = 0

CCSDS_OMM_VERS = 2.0
CREATION_DATE  = 
ORIGINATOR     = 

OBJECT_NAME    = UNKNOWN
OBJECT_ID      = 
CENTER_NAME    = EARTH
REF_FRAME      = TEME
TIME_SYSTEM    = UTC
MEAN_ELEMENT_THEORY = SGP/SGP4

EPOCH          = 2025-12-09T08:27:22.172544
MEAN_MOTION    = 13.53461524
ECCENTRICITY   = .0700804
INCLINATION    = 65.6706
RA_OF_ASC_NODE = 4.0727
ARG_OF_PERICENTER = 229.0157
MEAN_ANOMALY   = 124.8228

EPHEMERIS_TYPE = 0
CLASSIFICATION_TYPE = U
NORAD_CAT_ID   = 87553
ELEMENT_SET_NO = 999
REV_AT_EPOCH   = 59079
BSTAR          = .16234E-2
MEAN_MOTION_DOT = .5394E-4
MEAN_MOTION_DDOT = 0

CCSDS_OMM_VERS = 2.0
CREATION_DATE  = 
ORIGINATOR     = 

OBJECT_NAME    = UNKNOWN
OBJECT_ID      = 
CENTER_NAME    = EARTH
REF_FRAME      = TEME
TIME_SYSTEM    = UTC
MEAN_ELEMENT_THEORY = SGP/SGP4

EPOCH          = 2025-12-07T13:21:51.102144
MEAN_MOTION    = 13.27694723
ECCENTRICITY   = .0070981
INCLINATION    = 101.7248
RA_OF_ASC_NODE = 196.3279
ARG_OF_PERICENTER = 15.0409
MEAN_ANOMALY   = 345.2795

EPHEMERIS_TYPE = 0
CLASSIFICATION_TYPE = U
NORAD_CAT_ID   = 87557
ELEMENT_SET_NO = 999
REV_AT_EPOCH   = 56434
BSTAR          = .15256E-1
MEAN_MOTION_DOT = .6931E-4
MEAN_MOTION_DDOT = 0

